DMSP 5D-3 F16 (USA 172) 
1 28054U 03048A   26202.25993466 -.00000049  00000+0 -18703-5 0  9998
2 28054  98.9887 226.3125 0007979  56.3274   6.6000 14.14484708174308
METEOSAT-9 (MSG-2)      
1 28912U 05049B   26202.19766984  .00000118  00000+0  00000+0 0  9990
2 28912   9.4364  53.8277 0002467 359.6025   2.3892  1.00275570  7346
DMSP 5D-3 F17 (USA 191) 
1 29522U 06050A   26202.25248492 -.00000014  00000+0  14931-4 0  9996
2 29522  98.7390 208.1271 0009384 324.7041  35.3510 14.14996429 17244
FENGYUN 3A              
1 32958U 08026A   26201.80885957  .00000035  00000+0  37299-4 0  9995
2 32958  98.6886 142.0143 0009454  37.1178 323.0651 14.19577262940173
EWS-G3 (GOES 14)        
1 35491U 09033A   26202.28386740 -.00000359  00000+0  00000+0 0  9993
2 35491   1.7754  82.6222 0002179  38.8378  41.0157  1.00095523  6937
DMSP 5D-3 F18 (USA 210) 
1 35951U 09057A   26202.22597949  .00000229  00000+0  14165-3 0  9995
2 35951  98.9062 182.9253 0011566 148.9131 211.2729 14.14914566864402
EWS-G2 (GOES 15)        
1 36411U 10008A   26202.12980096  .00000022  00000+0  00000+0 0  9993
2 36411   1.3691  82.3970 0005468  53.6918 272.7805  1.00269530 59978
COMS 1                  
1 36744U 10032A   26202.01503036 -.00000183  00000+0  00000+0 0  9991
2 36744   4.8900  74.9483 0011454  15.1593 153.0036  0.99166581 51426
FENGYUN 3B              
1 37214U 10059A   26202.31982847 -.00000084  00000+0 -20152-4 0  9993
2 37214  98.9601 248.4758 0023229  90.2349 333.2642 14.14848181812256
SUOMI NPP               
1 37849U 11061A   26202.24426655  .00000053  00000+0  46138-4 0  9999
2 37849  98.7956 142.8890 0001058 186.9095 173.2067 14.19523533763278
METEOSAT-10 (MSG-3)     
1 38552U 12035B   26202.25994729 -.00000009  00000+0  00000+0 0  9991
2 38552   4.7503  60.8516 0001440  18.6196 313.1782  1.00272760 51196
METOP-B                 
1 38771U 12049A   26202.25877659  .00000050  00000+0  42767-4 0  9997
2 38771  98.6485 253.0749 0001324 223.4327 136.6746 14.21447560718105
INSAT-3D                
1 39216U 13038B   26202.28551407 -.00000339  00000+0  00000+0 0  9994
2 39216   2.0120  82.1114 0001077  42.3817  46.8388  1.00273485 47429
FENGYUN 3C              
1 39260U 13052A   26202.24970292  .00000068  00000+0  55505-4 0  9995
2 39260  98.5005 174.5650 0013487 287.2083  72.7615 14.15761665663386
METEOR-M 2              
1 40069U 14037A   26202.28465075  .00000166  00000+0  95111-4 0  9996
2 40069  98.5143 176.8197 0004779 306.5671  53.5067 14.21470426624161
HIMAWARI-8              
1 40267U 14060A   26202.28776742 -.00000275  00000+0  00000+0 0  9998
2 40267   0.0426 261.2075 0001298 255.8367  26.2534  1.00271251 43101
FENGYUN 2G              
1 40367U 14090A   26200.64000413 -.00000309  00000+0  00000+0 0  9993
2 40367   5.7192  72.4242 0003943 173.6464  21.2039  1.00279249 42329
METEOSAT-11 (MSG-4)     
1 40732U 15034A   26202.26176730  .00000061  00000+0  00000+0 0  9998
2 40732   3.2836  70.8880 0002014 355.3952 336.2509  1.00273754  7554
ELEKTRO-L 2             
1 41105U 15074A   26201.97185448 -.00000122  00000+0  00000+0 0  9999
2 41105   6.7770  70.1076 0000786 227.5423 336.4661  1.00272386 38848
SENTINEL-3A             
1 41335U 16011A   26202.22953099  .00000051  00000+0  39133-4 0  9994
2 41335  98.6232 269.1213 0001305  88.8236 271.3094 14.26740922542910
INSAT-3DR               
1 41752U 16054A   26202.20321653 -.00000076  00000+0  00000+0 0  9991
2 41752   0.0846  89.1002 0010312 180.3976 176.6093  1.00271560 36159
HIMAWARI-9              
1 41836U 16064A   26202.28776742 -.00000274  00000+0  00000+0 0  9996
2 41836   0.0179 293.5685 0001456 215.8695  33.9441  1.00270835 35559
GOES 16                 
1 41866U 16071A   26202.24299502 -.00000090  00000+0  00000+0 0  9993
2 41866   0.4191  85.4501 0000670  73.4244 122.9073  1.00271726 35448
FENGYUN 4A              
1 41882U 16077A   26202.28438741 -.00000358  00000+0  00000+0 0  9998
2 41882   2.4072  79.8968 0008147 159.4928 285.6796  1.00265504 35278
CYGFM05                 
1 41884U 16078A   26202.21705104  .00020304  00000+0  26143-3 0  9996
2 41884  34.9575  34.9983 0005298 103.9113 256.2201 15.58052903534062
CYGFM04                 
1 41885U 16078B   26202.14087976  .00027357  00000+0  28683-3 0  9995
2 41885  34.9332   1.4107 0004336 154.6483 205.4457 15.63342786534310
CYGFM02                 
1 41886U 16078C   26201.69058210  .00028676  00000+0  26335-3 0  9991
2 41886  34.9411 357.9232 0005031 150.2375 209.8639 15.66648843534420
CYGFM01                 
1 41887U 16078D   26201.80611199  .00019896  00000+0  24942-3 0  9992
2 41887  34.9404  38.5009 0005150  91.0871 269.0444 15.58760852533957
CYGFM08                 
1 41888U 16078E   26201.76927770  .00022229  00000+0  24894-3 0  9993
2 41888  34.9439  17.3993 0005992 130.9549 229.1696 15.61678238534229
CYGFM07                 
1 41890U 16078G   26201.66228281  .00021192  00000+0  23649-3 0  9991
2 41890  34.9455   6.4248 0004713 148.0237 212.0775 15.61782712534239
CYGFM03                 
1 41891U 16078H   26201.69745317  .00021593  00000+0  24109-3 0  9996
2 41891  34.9410   8.1183 0004345 130.9389 229.1713 15.61770161534211
